[{"OBJECT_NAME":"STARLINK-4312","OBJECT_ID":"2022-077Y","EPOCH":"2026-03-09T22:37:33.331296","MEAN_MOTION":15.01259749,"ECCENTRICITY":0.00020696,"INCLINATION":97.6015,"RA_OF_ASC_NODE":250.4555,"ARG_OF_PERICENTER":194.3253,"MEAN_ANOMALY":165.7913,"EPHEMERIS_TYPE":0,"CLASSIFICATION_TYPE":"U","NORAD_CAT_ID":53065,"ELEMENT_SET_NO":999,"REV_AT_EPOCH":20095,"BSTAR":4.464884e-6,"MEAN_MOTION_DOT":-1.0e-8,"MEAN_MOTION_DDOT":0},{"OBJECT_NAME":"PEGASUS R\/B","OBJECT_ID":"1994-029B","EPOCH":"2026-03-09T21:33:12.048768","MEAN_MOTION":14.76408324,"ECCENTRICITY":0.01139603,"INCLINATION":81.9597,"RA_OF_ASC_NODE":359.0956,"ARG_OF_PERICENTER":87.6383,"MEAN_ANOMALY":273.7868,"EPHEMERIS_TYPE":0,"CLASSIFICATION_TYPE":"U","NORAD_CAT_ID":23106,"ELEMENT_SET_NO":999,"REV_AT_EPOCH":70062,"BSTAR":0.00028197274,"MEAN_MOTION_DOT":2.205e-5,"MEAN_MOTION_DDOT":0}]
